OBJECT_NAME,OBJECT_ID,EPOCH,MEAN_MOTION,ECCENTRICITY,INCLINATION,RA_OF_ASC_NODE,ARG_OF_PERICENTER,MEAN_ANOMALY,EPHEMERIS_TYPE,CLASSIFICATION_TYPE,NORAD_CAT_ID,ELEMENT_SET_NO,REV_AT_EPOCH,BSTAR,MEAN_MOTION_DOT,MEAN_MOTION_DDOT
BEIDOU-3 M26 (C48),2023-207B,2026-06-17T02:19:21.816192,1.86229678,.0003107,55.7549,62.2926,320.4823,39.5358,0,U,58655,999,1682,0,-.53E-6,0
GSAT0225 (GALILEO 29),2024-079A,2026-06-17T17:19:42.233376,1.70473787,.0001842,55.1202,101.0649,301.4037,252.5080,0,U,59598,999,1332,0,-.13E-6,0
GSAT0227 (GALILEO 30),2024-079C,2026-06-16T09:59:23.456544,1.70474004,.00018166,55.1147,101.1002,35.9573,324.0185,0,U,59600,999,1335,0,-.14E-6,0
GSAT0232 (GALILEO 32),2024-167A,2026-06-17T04:46:04.943712,1.70474251,.00062334,55.1848,221.3134,227.6333,108.1105,0,U,61182,999,1087,0,.4E-6,0
GSAT0226 (GALILEO 31),2024-167B,2026-06-16T11:57:56.081664,1.70474202,.00029338,55.1839,221.3398,227.4151,129.9958,0,U,61183,999,1083,0,.46E-6,0
BEIDOU-3 M25 (C47),2024-168B,2026-06-17T11:12:51.792768,1.86229836,.0002981,54.4730,302.2322,300.4898,65.2743,0,U,61186,999,1179,0,-.74E-6,0
BEIDOU-3 M27 (C49),2024-168C,2026-06-17T17:39:17.248320,1.86229921,.000155,54.4680,302.2058,51.6778,269.0290,0,U,61187,999,926,0,-.75E-6,0
GPS BIII-7  (PRN 01),2024-242A,2026-06-17T08:41:48.247008,2.00571336,.00172297,54.8483,334.1736,4.0833,11.4300,0,U,62339,999,1126,0,-.89E-6,0
QZS-6 (QZSS/PRN 200),2025-023A,2026-06-17T20:14:37.594752,1.00270502,.0001766,0.0554,71.1993,20.4737,208.5937,0,U,62876,999,495,0,-.238E-5,0
COSMOS 2584 (704K),2025-042A,2026-06-16T04:50:31.942176,2.13103849,.00057452,65.0842,72.8354,226.1824,133.8028,0,U,63130,999,1002,0,-.22E-6,0
GPS BIII-8  (PRN 21),2025-116A,2026-06-12T09:20:58.319232,2.00576015,.00085633,55.2312,31.3239,338.8161,228.7168,0,U,64202,999,777,0,-.65E-6,0
COSMOS 2596 (708K),2025-206B,2026-06-16T12:23:35.378016,2.13100531,.00109881,64.6350,315.0084,311.8210,45.8784,0,U,65590,999,589,0,-.56E-6,0
GSAT0233 (GALILEO 33),2025-302A,2026-06-16T15:26:34.581120,1.70473859,.00008275,54.3363,102.1464,225.8121,317.0215,0,U,67160,999,311,0,-.13E-6,0
GSAT0234 (GALILEO 34),2025-302C,2026-06-14T13:55:34.266144,1.70473883,.0003043,54.3363,102.2045,308.4769,228.2268,0,U,67162,999,313,0,-.11E-6,0
GPS BIII-9  (PRN 20),2026-017A,2026-06-17T04:44:06.594720,2.00571090,.00220809,55.0883,88.7549,258.4523,101.2987,0,U,67588,999,43161,0,-.21E-6,0
GPS BIII-10 (PRN 13),2026-087A,2026-06-07T10:32:17.680992,2.00569573,.00209312,54.9638,208.1735,107.2972,251.8874,0,U,68791,999,63,0,.57E-6,0
