BEIDOU-3 M26            
1 58655U 23207B   26168.09678028 -.00000053  00000+0  00000+0 0  9993
2 58655  55.7549  62.2926 0003107 320.4823  39.5358  1.86229678 16825
GSAT0225 (GALILEO 29)   
1 59598U 24079A   26168.72201659 -.00000013  00000+0  00000+0 0  9996
2 59598  55.1202 101.0649 0001842 301.4037 252.5080  1.70473787 13322
GSAT0227 (GALILEO 30)   
1 59600U 24079C   26167.41624371 -.00000014  00000+0  00000+0 0  9996
2 59600  55.1147 101.1002 0001816  35.9573 324.0185  1.70474004 13350
GSAT0232 (GALILEO 32)   
1 61182U 24167A   26168.19866833  .00000040  00000+0  00000+0 0  9997
2 61182  55.1848 221.3134 0006233 227.6333 108.1105  1.70474251 10870
GSAT0226 (GALILEO 31)   
1 61183U 24167B   26167.49856576  .00000046  00000+0  00000+0 0  9999
2 61183  55.1839 221.3398 0002933 227.4151 129.9958  1.70474202 10831
BEIDOU-3 M25            
1 61186U 24168B   26168.46726612 -.00000074  00000+0  00000+0 0  9990
2 61186  54.4730 302.2322 0002981 300.4898  65.2743  1.86229836 11793
BEIDOU-3 M27            
1 61187U 24168C   26168.73561630 -.00000075  00000+0  00000+0 0  9999
2 61187  54.4680 302.2058 0001550  51.6778 269.0290  1.86229921  9262
NAVSTAR 83 (USA 440)    
1 62339U 24242A   26168.36236397 -.00000089  00000+0  00000+0 0  9995
2 62339  54.8483 334.1736 0017229   4.0833  11.4300  2.00571336 11269
QZS-6 (MICHIBIKI-6)     
1 62876U 25023A   26168.84349068 -.00000238  00000+0  00000+0 0  9998
2 62876   0.0554  71.1993 0001766  20.4737 208.5937  1.00270502  4957
COSMOS 2584 [GLONASS-K2]
1 63130U 25042A   26167.20175859 -.00000022  00000+0  00000+0 0  9998
2 63130  65.0842  72.8354 0005745 226.1824 133.8028  2.13103849 10024
NAVSTAR 84 (USA 545)    
1 64202U 25116A   26163.38956388 -.00000065  00000+0  00000+0 0  9997
2 64202  55.2312  31.3239 0008563 338.8161 228.7168  2.00576015  7778
COSMOS 2596 [GLONASS-K1]
1 65590U 25206B   26167.51638169 -.00000056  00000+0  00000+0 0  9991
2 65590  64.6350 315.0084 0010988 311.8210  45.8784  2.13100531  5898
GSAT0233 (GALILEO 33)   
1 67160U 25302A   26167.64345580 -.00000013  00000+0  00000+0 0  9992
2 67160  54.3363 102.1464 0000827 225.8121 317.0215  1.70473859  3110
GSAT0234 (GALILEO 34)   
1 67162U 25302C   26165.58025771 -.00000011  00000+0  00000+0 0  9990
2 67162  54.3363 102.2045 0003043 308.4769 228.2268  1.70473883  3137
NAVSTAR 85 (USA 581)    
1 67588U 26017A   26168.19729855 -.00000021  00000+0  00000+0 0  9991
2 67588  55.0883  88.7549 0022080 258.4523 101.2987  2.00571090431614
NAVSTAR 86 (USA 585)    
1 68791U 26087A   26158.43909353  .00000057  00000+0  00000+0 0  9992
2 68791  54.9638 208.1735 0020931 107.2972 251.8874  2.00569573   638
